0 THORAD AGENA D DEB
1 16715U 70025PA  13282.85773301  .00000185  00000-0  31468-3 0  2154
2 16715 100.1335 278.5309 0006677 113.0769 004.4535 13.59583208415759
0 THORAD AGENA D DEB
1 16715U 70025PA  13287.86181895  .00000213  00000-0  35150-3 0  2177
2 16715 100.1333 283.7025 0006730 101.9652 015.6465 13.59586119416433
0 THORAD AGENA D DEB
1 16715U 70025PA  13290.20456255  .00000208  00000-0  34472-3 0  2185
2 16715 100.1336 286.1234 0006744 096.7811 321.5945 13.59587463416758
0 THORAD AGENA D DEB
1 16715U 70025PA  13292.79348558  .00000230  00000-0  37487-3 0  2192
2 16715 100.1341 288.7988 0006752 090.9913 032.4787 13.59588633417108
0 THORAD AGENA D DEB
1 16715U 70025PA  13295.20855502  .00000244  00000-0  39364-3 0  2206
2 16715 100.1343 291.2947 0006750 085.6372 332.4401 13.59589955417432
